[{"OBJECT_NAME":"STARLINK-4796","OBJECT_ID":"2022-119Z","EPOCH":"2026-03-09T21:42:46.422144","MEAN_MOTION":15.08834839,"ECCENTRICITY":0.00013234,"INCLINATION":53.2179,"RA_OF_ASC_NODE":313.4174,"ARG_OF_PERICENTER":102.2266,"MEAN_ANOMALY":257.8874,"EPHEMERIS_TYPE":0,"CLASSIFICATION_TYPE":"U","NORAD_CAT_ID":53909,"ELEMENT_SET_NO":999,"REV_AT_EPOCH":19185,"BSTAR":-1.8195699e-5,"MEAN_MOTION_DOT":-5.77e-6,"MEAN_MOTION_DDOT":0},{"OBJECT_NAME":"OBJECT G","OBJECT_ID":"2025-292G","EPOCH":"2026-03-09T22:41:34.708704","MEAN_MOTION":15.05879657,"ECCENTRICITY":0.00150455,"INCLINATION":97.6425,"RA_OF_ASC_NODE":145.7524,"ARG_OF_PERICENTER":352.95,"MEAN_ANOMALY":7.1513,"EPHEMERIS_TYPE":0,"CLASSIFICATION_TYPE":"U","NORAD_CAT_ID":66999,"ELEMENT_SET_NO":999,"REV_AT_EPOCH":1351,"BSTAR":0.00047153864,"MEAN_MOTION_DOT":6.807e-5,"MEAN_MOTION_DDOT":0}]
